NORAD_CAT_ID,OBJECT_NAME,OBJECT_TYPE,EPOCH,MEAN_MOTION,ECCENTRICITY,INCLINATION,RA_OF_ASC_NODE,ARG_OF_PERICENTER,MEAN_ANOMALY,BSTAR,MEAN_MOTION_DOT,MEAN_MOTION_DDOT,TLE_LINE0,TLE_LINE1,TLE_LINE2,SEMIMAJOR_AXIS,PERIOD,APOGEE,PERIGEE,DECAYED
53829.0,STARLINK-4759,PAYLOAD,2024-03-15 00:58:18,15.08835862,0.0001328,53.2187,317.2222,89.0012,271.1132,3.3794e-05,2.5e-06,0.0,0 STARLINK-4759,1 53829U 22114M   24075.04049253  .00000250  00000-0  33794-4 0  9999,2 53829  53.2187 317.2222 0001328  89.0012 271.1132 15.08835862 82898,6917.893,95.438,540.677,538.839,0.0
53829.0,STARLINK-4759,PAYLOAD,2024-03-15 16:52:09,15.08837046,0.0001333,53.2188,314.2493,97.3154,262.7989,0.00014327,1.993e-05,0.0,0 STARLINK-4759,1 53829U 22114M   24075.70289154  .00001993  00000-0  14327-3 0  9993,2 53829  53.2188 314.2493 0001333  97.3154 262.7989 15.08837046 83535,6917.889,95.438,540.677,538.832,0.0
53829.0,STARLINK-4759,PAYLOAD,2024-03-16 00:49:05,15.08840925,0.0001258,53.2172,312.7611,87.4348,272.6788,6.5425e-05,7.54e-06,0.0,0 STARLINK-4759,1 53829U 22114M   24076.03408937  .00000754  00000-0  65425-4 0  9992,2 53829  53.2172 312.7611 0001258  87.4348 272.6788 15.08840925 83586,6917.878,95.437,540.613,538.872,0.0
53829.0,STARLINK-4759,PAYLOAD,2024-03-16 21:29:06,15.08838209,0.0001186,53.2164,308.894,91.5968,268.516,8.6372e-05,1.087e-05,0.0,0 STARLINK-4759,1 53829U 22114M   24076.89521294  .00001087  00000-0  86372-4 0  9992,2 53829  53.2164 308.8940 0001186  91.5968 268.5160 15.08838209 83177,6917.886,95.438,540.571,538.93,0.0
53829.0,STARLINK-4759,PAYLOAD,2024-03-17 00:39:52,15.08838384,0.0001219,53.2166,308.2995,92.0276,268.0856,8.4516e-05,1.057e-05,0.0,0 STARLINK-4759,1 53829U 22114M   24077.02769317  .00001057  00000-0  84516-4 0  9993,2 53829  53.2166 308.2995 0001219  92.0276 268.0856 15.08838384 83731,6917.885,95.438,540.594,538.907,0.0
53829.0,STARLINK-4759,PAYLOAD,2024-03-17 21:19:53,15.08844418,0.0001257,53.2167,304.4339,89.185,270.9286,0.00016627,2.36e-05,0.0,0 STARLINK-4759,1 53829U 22114M   24077.88881097  .00002360  00000-0  16627-3 0  9992,2 53829  53.2167 304.4339 0001257  89.1850 270.9286 15.08844418 83867,6917.867,95.437,540.601,538.862,0.0
53829.0,STARLINK-4759,PAYLOAD,2024-03-18 14:49:07,15.08845044,0.0001214,53.2161,301.1661,94.916,265.197,0.00015266,2.143e-05,0.0,0 STARLINK-4759,1 53829U 22114M   24078.61745017  .00002143  00000-0  15266-3 0  9992,2 53829  53.2161 301.1661 0001214  94.9160 265.1970 15.08845044 83978,6917.865,95.437,540.57,538.89,0.0
53829.0,STARLINK-4759,PAYLOAD,2024-03-18 21:10:40,15.08843276,0.0001194,53.2162,299.974,95.3619,264.7509,0.00012239,1.661e-05,0.0,0 STARLINK-4759,1 53829U 22114M   24078.88241087  .00001661  00000-0  12239-3 0  9990,2 53829  53.2162 299.9740 0001194  95.3619 264.7509 15.08843276 83475,6917.87,95.437,540.561,538.909,0.0
53829.0,STARLINK-4759,PAYLOAD,2024-03-19 00:21:26,15.08844819,0.0001186,53.2162,299.3787,98.0202,262.0925,0.00013941,1.932e-05,0.0,0 STARLINK-4759,1 53829U 22114M   24079.01488970  .00001932  00000-0  13941-3 0  9992,2 53829  53.2162 299.3787 0001186  98.0202 262.0925 15.08844819 84039,6917.866,95.437,540.551,538.91,0.0
53829.0,STARLINK-4759,PAYLOAD,2024-03-20 00:12:13,15.08850107,0.00013,53.2162,294.917,96.3716,263.7424,0.0001683,2.392e-05,0.0,0 STARLINK-4759,1 53829U 22114M   24080.00848475  .00002392  00000-0  16830-3 0  9994,2 53829  53.2162 294.9170 0001300  96.3716 263.7424 15.08850107 83640,6917.849,95.437,540.614,538.815,0.0
53829.0,STARLINK-4759,PAYLOAD,2024-03-20 20:52:15,15.08814344,0.0001272,53.2156,291.0502,91.0571,269.0566,0.00044673,6.824e-05,0.0,0 STARLINK-4759,1 53829U 22114M   24080.86962456  .00006824  00000-0  44673-3 0  9994,2 53829  53.2156 291.0502 0001272  91.0571 269.0566 15.08814344 83772,6917.959,95.439,540.704,538.944,0.0
53829.0,STARLINK-4759,PAYLOAD,2024-03-21 00:03:01,15.08831822,0.0001206,53.2166,290.4563,91.9331,268.1799,-3.2933e-05,-8.12e-06,0.0,0 STARLINK-4759,1 53829U 22114M   24081.00209884 -.00000812  00000-0 -32933-4 0  9990,2 53829  53.2166 290.4563 0001206  91.9331 268.1799 15.08831822 83793,6917.905,95.438,540.605,538.936,0.0
53829.0,STARLINK-4759,PAYLOAD,2024-03-21 06:24:33,15.08837135,0.000128,53.2178,289.2686,100.0722,260.0415,1.2289e-05,-9.2e-07,0.0,0 STARLINK-4759,1 53829U 22114M   24081.26705495 -.00000092  00000-0  12289-4 0  9998,2 53829  53.2178 289.2686 0001280 100.0722 260.0415 15.08837135 83830,6917.889,95.438,540.64,538.869,0.0
53829.0,STARLINK-4759,PAYLOAD,2024-03-21 14:21:29,15.08836402,0.0001324,53.2179,287.7821,102.8679,257.2461,1.3936e-05,-6.6e-07,0.0,0 STARLINK-4759,1 53829U 22114M   24081.59825672 -.00000066  00000-0  13936-4 0  9995,2 53829  53.2179 287.7821 0001324 102.8679 257.2461 15.08836402 84426,6917.891,95.438,540.672,538.84,0.0
53829.0,STARLINK-4759,PAYLOAD,2024-03-21 19:07:38,15.08841041,0.0001515,53.2181,286.8904,107.5895,252.5263,7.1794e-05,8.55e-06,0.0,0 STARLINK-4759,1 53829U 22114M   24081.79697306  .00000855  00000-0  71794-4 0  9999,2 53829  53.2181 286.8904 0001515 107.5895 252.5263 15.08841041 84451,6917.877,95.437,540.79,538.694,0.0
53829.0,STARLINK-4759,PAYLOAD,2024-03-21 23:53:47,15.08842152,0.000153,53.2182,285.9983,108.9971,251.1187,8.9429e-05,1.136e-05,0.0,0 STARLINK-4759,1 53829U 22114M   24081.99569247  .00001136  00000-0  89429-4 0  9990,2 53829  53.2182 285.9983 0001530 108.9971 251.1187 15.08842152 84483,6917.874,95.437,540.797,538.68,0.0
53829.0,STARLINK-4759,PAYLOAD,2024-03-22 18:58:25,15.08840805,0.0001414,53.217,282.4272,104.8917,255.2232,0.00018962,2.731e-05,0.0,0 STARLINK-4759,1 53829U 22114M   24082.79057126  .00002731  00000-0  18962-3 0  9992,2 53829  53.2170 282.4272 0001414 104.8917 255.2232 15.08840805 84062,6917.878,95.438,540.721,538.765,0.0
53829.0,STARLINK-4759,PAYLOAD,2024-03-23 20:24:35,15.08841754,0.000114,53.2165,277.6659,97.6806,262.4316,4.0343e-05,3.54e-06,0.0,0 STARLINK-4759,1 53829U 22114M   24083.85041458  .00000354  00000-0  40343-4 0  9999,2 53829  53.2165 277.6659 0001140  97.6806 262.4316 15.08841754 84228,6917.875,95.437,540.529,538.951,0.0
53829.0,STARLINK-4759,PAYLOAD,2024-03-24 05:56:54,15.08847443,0.0001247,53.2173,275.8818,84.1733,275.9401,7.1465e-05,8.5e-06,0.0,0 STARLINK-4759,1 53829U 22114M   24084.24785053  .00000850  00000-0  71465-4 0  9999,2 53829  53.2173 275.8818 0001247  84.1733 275.9401 15.08847443 84823,6917.858,95.437,540.585,538.86,0.0
53829.0,STARLINK-4759,PAYLOAD,2024-03-24 20:15:22,15.0884738,0.000141,53.2178,273.2092,88.6484,271.4669,9.8168e-05,1.275e-05,0.0,0 STARLINK-4759,1 53829U 22114M   24084.84401255  .00001275  00000-0  98168-4 0  9995,2 53829  53.2178 273.2092 0001410  88.6484 271.4669 15.08847380 84915,6917.858,95.437,540.698,538.747,0.0
53829.0,STARLINK-4759,PAYLOAD,2024-03-25 12:09:14,15.0884524,0.0001411,53.2176,270.2367,77.8361,282.2789,0.00015271,2.144e-05,0.0,0 STARLINK-4759,1 53829U 22114M   24085.50641226  .00002144  00000-0  15271-3 0  9992,2 53829  53.2176 270.2367 0001411  77.8361 282.2789 15.08845240 84477,6917.864,95.437,540.705,538.753,0.0
53829.0,STARLINK-4759,PAYLOAD,2024-03-25 18:30:46,15.08846202,0.0001227,53.2159,269.0473,91.1842,268.9291,0.00016378,2.32e-05,0.0,0 STARLINK-4759,1 53829U 22114M   24085.77137236  .00002320  00000-0  16378-3 0  9997,2 53829  53.2159 269.0473 0001227  91.1842 268.9291 15.08846202 85053,6917.861,95.437,540.575,538.878,0.0
53829.0,STARLINK-4759,PAYLOAD,2024-03-26 05:38:27,15.08858567,0.0001449,53.2172,266.9663,83.0779,277.0378,0.00033174,4.998e-05,0.0,0 STARLINK-4759,1 53829U 22114M   24086.23504263  .00004998  00000-0  33174-3 0  9993,2 53829  53.2172 266.9663 0001449  83.0779 277.0378 15.08858567 84581,6917.824,95.436,540.691,538.686,0.0
53829.0,STARLINK-4759,PAYLOAD,2024-03-26 15:10:48,15.08825375,0.0001605,53.2175,265.1824,104.6982,255.4188,-0.00012927,-2.344e-05,0.0,0 STARLINK-4759,1 53829U 22114M   24086.63250071 -.00002344  00000-0 -12927-3 0  9990,2 53829  53.2175 265.1824 0001605 104.6982 255.4188 15.08825375 85181,6917.925,95.438,540.9,538.68,0.0
53829.0,STARLINK-4759,PAYLOAD,2024-03-26 18:21:35,15.08821785,0.0001394,53.2183,264.5865,100.3833,259.7316,-2.8047e-05,-7.34e-06,0.0,0 STARLINK-4759,1 53829U 22114M   24086.76498873 -.00000734  00000-0 -28047-4 0  9990,2 53829  53.2183 264.5865 0001394 100.3833 259.7316 15.08821785 84664,6917.936,95.439,540.765,538.837,0.0
53829.0,STARLINK-4759,PAYLOAD,2024-03-27 15:01:35,15.08833013,0.0001424,53.2179,260.7226,101.8674,258.2478,1.5108e-05,-4.8e-07,0.0,0 STARLINK-4759,1 53829U 22114M   24087.62610381 -.00000048  00000-0  15108-4 0  9997,2 53829  53.2179 260.7226 0001424 101.8674 258.2478 15.08833013 85336,6917.902,95.438,540.752,538.782,0.0
53829.0,STARLINK-4759,PAYLOAD,2024-03-27 21:23:07,15.08842353,0.0001401,53.2166,259.531,100.3296,259.7854,7.6709e-05,9.33e-06,0.0,0 STARLINK-4759,1 53829U 22114M   24087.89105751  .00000933  00000-0  76709-4 0  9992,2 53829  53.2166 259.5310 0001401 100.3296 259.7854 15.08842353 84836,6917.873,95.437,540.707,538.769,0.0
53829.0,STARLINK-4759,PAYLOAD,2024-03-28 11:41:36,15.08827195,0.0001475,53.2179,256.8551,101.2324,258.8834,0.00022931,3.362e-05,0.0,0 STARLINK-4759,1 53829U 22114M   24088.48722409  .00003362  00000-0  22931-3 0  9999,2 53829  53.2179 256.8551 0001475 101.2324 258.8834 15.08827195 84925,6917.92,95.438,540.805,538.764,0.0
53829.0,STARLINK-4759,PAYLOAD,2024-03-28 18:03:09,15.08825442,0.0001134,53.2181,255.6657,93.7273,266.3849,0.0001977,2.859e-05,0.0,0 STARLINK-4759,1 53829U 22114M   24088.75218837  .00002859  00000-0  19770-3 0  9991,2 53829  53.2181 255.6657 0001134  93.7273 266.3849 15.08825442 85500,6917.925,95.438,540.574,539.005,0.0
53829.0,STARLINK-4759,PAYLOAD,2024-03-29 11:32:23,15.08837743,0.000108,53.2188,252.3957,85.0939,275.0176,6.3783e-05,7.27e-06,0.0,0 STARLINK-4759,1 53829U 22114M   24089.48082835  .00000727  00000-0  63783-4 0  9995,2 53829  53.2188 252.3957 0001080  85.0939 275.0176 15.08837743 85616,6917.887,95.438,540.499,539.005,0.0
